NORAD_CAT_ID,OBJECT_NAME,OBJECT_TYPE,EPOCH,MEAN_MOTION,ECCENTRICITY,INCLINATION,RA_OF_ASC_NODE,ARG_OF_PERICENTER,MEAN_ANOMALY,BSTAR,MEAN_MOTION_DOT,MEAN_MOTION_DDOT,TLE_LINE0,TLE_LINE1,TLE_LINE2,SEMIMAJOR_AXIS,PERIOD,APOGEE,PERIGEE,DECAYED
52281.0,STARLINK-3779,PAYLOAD,2022-08-16 22:00:00,15.08831072,0.0002384,53.2183,188.5033,57.9666,305.274,0.00087123,0.00013602,0.0,0 STARLINK-3779,1 52281U 22041W   22228.91667824  .00013602  00000-0  87123-3 0  9992,2 52281  53.2183 188.5033 0002384  57.9666 305.2740 15.08831072  1306,6917.908,95.438,541.422,538.123,0.0
52281.0,STARLINK-3779,PAYLOAD,2022-08-17 14:00:01,15.08849687,0.0002448,53.2178,185.5112,56.261,330.1553,-0.0014376,-0.00023102,0.0,0 STARLINK-3779,1 52281U 22041W   22229.58334491 -.00023102  00000-0 -14376-2 0  9994,2 52281  53.2178 185.5112 0002448  56.2610 330.1553 15.08849687 19328,6917.851,95.437,541.409,538.0219999999998,0.0
52281.0,STARLINK-3779,PAYLOAD,2022-08-17 16:00:00,15.08829929,0.0002366,53.2178,185.1369,57.529,61.7939,0.0014369,0.00022648,0.0,0 STARLINK-3779,1 52281U 22041W   22229.66667824  .00022648  00000-0  14369-2 0  9996,2 52281  53.2178 185.1369 0002366  57.5290  61.7939 15.08829929  1306,6917.911,95.438,541.413,538.139,0.0
52281.0,STARLINK-3779,PAYLOAD,2022-08-18 08:00:01,15.08812101,0.0002437,53.2172,182.146,53.728,88.8056,0.00352,0.00056138,0.0,0 STARLINK-3779,1 52281U 22041W   22230.33334491  .00056138  00000-0  35200-2 0  9991,2 52281  53.2172 182.1460 0002437  53.7280  88.8056 15.08812101 19432,6917.965999999999,95.439,541.5169999999998,538.145,0.0
52281.0,STARLINK-3779,PAYLOAD,2022-08-18 14:00:01,15.08847947,0.0002339,53.2172,181.0224,58.1564,3.0631,-0.00041875,-6.948e-05,0.0,0 STARLINK-3779,1 52281U 22041W   22230.58334491 -.00006948  00000-0 -41875-3 0  9990,2 52281  53.2172 181.0224 0002339  58.1564   3.0631 15.08847947  1304,6917.856,95.437,541.339,538.1030000000002,0.0
52281.0,STARLINK-3779,PAYLOAD,2022-08-18 22:00:00,15.08854323,0.0002325,53.2172,179.52599999999995,61.1503,11.6561,0.00013398,1.845e-05,0.0,0 STARLINK-3779,1 52281U 22041W   22230.91667824  .00001845  00000-0  13398-3 0  9994,2 52281  53.2172 179.5260 0002325  61.1503  11.6561 15.08854323  1301,6917.837,95.437,541.31,538.0930000000002,0.0
52281.0,STARLINK-3779,PAYLOAD,2022-08-19 14:00:01,15.08822003,0.0002165999999999,53.2167,176.5334,57.1929,38.8364,-0.0017962,-0.00028748,0.0,0 STARLINK-3779,1 52281U 22041W   22231.58334491 -.00028748  00000-0 -17962-2 0  9992,2 52281  53.2167 176.5334 0002166  57.1929  38.8364 15.08822003  1306,6917.935,95.439,541.299,538.302,0.0
52281.0,STARLINK-3779,PAYLOAD,2022-08-19 22:00:00,15.08819178,0.0002183,53.2167,175.0371,59.4097,48.1724,-0.00041646,-6.907e-05,0.0,0 STARLINK-3779,1 52281U 22041W   22231.91667824 -.00006907  00000-0 -41646-3 0  9998,2 52281  53.2167 175.0371 0002183  59.4097  48.1724 15.08819178  1304,6917.944,95.439,541.319,538.299,0.0
52281.0,STARLINK-3779,PAYLOAD,2022-08-20 06:00:00,15.08791185,0.000231,53.2166,173.5424,54.1139,65.0376,0.0027594,0.00043843,0.0,0 STARLINK-3779,1 52281U 22041W   22232.25001157  .00043843  00000-0  27594-2 0  9990,2 52281  53.2166 173.5424 0002310  54.1139  65.0376 15.08791185 19729,6918.03,95.441,541.493,538.297,0.0
52281.0,STARLINK-3779,PAYLOAD,2022-08-20 14:00:01,15.08822923,0.00022,53.2166,172.0445,57.7916,72.926,0.00026397,3.913e-05,0.0,0 STARLINK-3779,1 52281U 22041W   22232.58334491  .00003913  00000-0  26397-3 0  9991,2 52281  53.2166 172.0445 0002200  57.7916  72.9260 15.08822923  1305,6917.933000000001,95.439,541.32,538.276,0.0
52281.0,STARLINK-3779,PAYLOAD,2022-08-20 22:00:00,15.08843848,0.0002275,53.2167,170.5482,60.3014,81.9863,-0.00060409,-9.891e-05,0.0,0 STARLINK-3779,1 52281U 22041W   22232.91667824 -.00009891  00000-0 -60409-3 0  9992,2 52281  53.2167 170.5482 0002275  60.3014  81.9863 15.08843848  1309,6917.869000000002,95.437,541.307,538.16,0.0
52281.0,STARLINK-3779,PAYLOAD,2022-08-21 06:00:00,15.0881003,0.0002409,53.2168,169.0534,54.93600000000001,98.9473,0.0030939,0.00049256,0.0,0 STARLINK-3779,1 52281U 22041W   22233.25001157  .00049256  00000-0  30939-2 0  9992,2 52281  53.2168 169.0534 0002409  54.9360  98.9473 15.08810030 19876,6917.972,95.439,541.504,538.17,0.0
52281.0,STARLINK-3779,PAYLOAD,2022-08-21 14:00:01,15.08839003,0.0002289,53.217,167.5554,58.8476,106.6257,0.00066313,0.00010281,0.0,0 STARLINK-3779,1 52281U 22041W   22233.58334491  .00010281  00000-0  66313-3 0  9990,2 52281  53.2170 167.5554 0002289  58.8476 106.6257 15.08839003  1308,6917.8830000000025,95.438,541.332,538.165,0.0
52281.0,STARLINK-3779,PAYLOAD,2022-08-21 22:00:00,15.08864444,0.0002373,53.2172,166.0592,61.0068,116.0592,-0.00087055,-0.00014126,0.0,0 STARLINK-3779,1 52281U 22041W   22233.91667824 -.00014126  00000-0 -87055-3 0  9996,2 52281  53.2172 166.0592 0002373  61.0068 116.0592 15.08864444 19979,6917.806,95.436,541.312,538.029,0.0
52281.0,STARLINK-3779,PAYLOAD,2022-08-22 12:00:00,15.08860133,0.000235,53.2175,163.4407,58.2075,49.1844,-0.0027226,-0.00043384,0.0,0 STARLINK-3779,1 52281U 22041W   22234.50001157 -.00043384  00000-0 -27226-2 0  9994,2 52281  53.2175 163.4407 0002350  58.2075  49.1844 15.08860133  1304,6917.819,95.436,541.31,538.058,0.0
52281.0,STARLINK-3779,PAYLOAD,2022-08-22 22:00:00,15.08857519,0.0002349,53.2178,161.5704,60.6868,151.2001,-0.0010257999999999,-0.00016585,0.0,0 STARLINK-3779,1 52281U 22041W   22234.91667824 -.00016585  00000-0 -10258-2 0  9998,2 52281  53.2178 161.5704 0002349  60.6868 151.2001 15.08857519  1305,6917.8269999999975,95.436,541.317,538.067,0.0
52281.0,STARLINK-3779,PAYLOAD,2022-08-23 06:00:00,15.08833589,0.0002424999999999,53.2179,160.0754,55.5323,167.9611,0.00029045,4.337e-05,0.0,0 STARLINK-3779,1 52281U 22041W   22235.25001157  .00004337  00000-0  29045-3 0  9992,2 52281  53.2179 160.0754 0002425  55.5323 167.9611 15.08833589 20177,6917.9,95.438,541.443,538.087,0.0
52281.0,STARLINK-3779,PAYLOAD,2022-08-23 14:00:01,15.08810321,0.0002234,53.2182,158.5773,59.4269,175.6645,0.0014661,0.00023103,0.0,0 STARLINK-3779,1 52281U 22041W   22235.58334491  .00023103  00000-0  14661-2 0  9997,2 52281  53.2182 158.5773 0002234  59.4269 175.6645 15.08810321  1300,6917.971,95.439,541.382,538.2909999999998,0.0
52281.0,STARLINK-3779,PAYLOAD,2022-08-23 22:00:01,15.08842786,0.0002299,53.2184,157.0816,60.7716,185.9476,-0.0013477,-0.00021675,0.0,0 STARLINK-3779,1 52281U 22041W   22235.91668981 -.00021675  00000-0 -13477-2 0  9996,2 52281  53.2184 157.0816 0002299  60.7716 185.9476 15.08842786  1303,6917.871999999999,95.437,541.327,538.146,0.0
52281.0,STARLINK-3779,PAYLOAD,2022-08-24 06:00:00,15.08811236,0.0002399999999999,53.2182,155.5866,56.4078,201.8386,0.002691,0.00042767,0.0,0 STARLINK-3779,1 52281U 22041W   22236.25001157  .00042767  00000-0  26910-2 0  9999,2 52281  53.2182 155.5866 0002400  56.4078 201.8386 15.08811236 20323,6917.968000000003,95.439,541.494,538.173,0.0
52281.0,STARLINK-3779,PAYLOAD,2022-08-24 14:00:01,15.08816627,0.000226,53.2185,154.0886,61.8903,207.9418,0.0018585999999999,0.00029397,0.0,0 STARLINK-3779,1 52281U 22041W   22236.58334491  .00029397  00000-0  18586-2 0  9999,2 52281  53.2185 154.0886 0002260  61.8903 207.9418 15.08816627  1302,6917.9519999999975,95.439,541.38,538.253,0.0
52281.0,STARLINK-3779,PAYLOAD,2022-08-24 22:00:00,15.08853901,0.0002322,53.2186,152.5932,62.5513,218.8584,-0.0015602,-0.00025043,0.0,0 STARLINK-3779,1 52281U 22041W   22236.91667824 -.00025043  00000-0 -15602-2 0  9997,2 52281  53.2186 152.5932 0002322  62.5513 218.8584 15.08853901 20427,6917.8380000000025,95.437,541.309,538.097,0.0
52281.0,STARLINK-3779,PAYLOAD,2022-08-25 14:00:01,15.088242,0.0002281,53.2184,149.6,64.7338,239.8805,0.0023765,0.00037721,0.0,0 STARLINK-3779,1 52281U 22041W   22237.58334491  .00037721  00000-0  23765-2 0  9995,2 52281  53.2184 149.6000 0002281  64.7338 239.8805 15.08824200  1306,6917.929,95.439,541.372,538.216,0.0
52281.0,STARLINK-3779,PAYLOAD,2022-08-25 22:00:00,15.08864184,0.000235,53.2184,148.1047,64.6909,251.5125,-0.0016837,-0.00027003,0.0,0 STARLINK-3779,1 52281U 22041W   22237.91667824 -.00027003  00000-0 -16837-2 0  9997,2 52281  53.2184 148.1047 0002350  64.6909 251.5125 15.08864184  1302,6917.806,95.436,541.297,538.0459999999998,0.0
52281.0,STARLINK-3779,PAYLOAD,2022-08-26 06:00:00,15.08848626,0.0002373,53.2179,146.6092,60.7079,267.1048,-3.8489e-05,-9.01e-06,0.0,0 STARLINK-3779,1 52281U 22041W   22238.25001157 -.00000901  00000-0 -38489-4 0  9993,2 52281  53.2179 146.6092 0002373  60.7079 267.1048 15.08848626 20625,6917.854,95.437,541.361,538.077,0.0
52281.0,STARLINK-3779,PAYLOAD,2022-08-26 14:00:01,15.08811817,0.0002226,53.2179,145.1112,66.7317,272.7632,0.0019833999999999,0.00031395,0.0,0 STARLINK-3779,1 52281U 22041W   22238.58335648  .00031395  00000-0  19834-2 0  9994,2 52281  53.2179 145.1112 0002226  66.7317 272.7632 15.08811817  1307,6917.967,95.439,541.371,538.2919999999998,0.0
52281.0,STARLINK-3779,PAYLOAD,2022-08-26 22:00:00,15.08845429,0.0002308,53.218,143.6161,65.292,285.7104,-0.0017285999999999,-0.00027699,0.0,0 STARLINK-3779,1 52281U 22041W   22238.91667824 -.00027699  00000-0 -17286-2 0  9998,2 52281  53.2180 143.6161 0002308  65.2920 285.7104 15.08845429  1305,6917.864000000001,95.437,541.325,538.132,0.0
52281.0,STARLINK-3779,PAYLOAD,2022-08-27 14:00:01,15.08814213,0.0002264,53.2176,140.6225,68.0432,306.1461,0.0030315999999999,0.00048257,0.0,0 STARLINK-3779,1 52281U 22041W   22239.58334491  .00048257  00000-0  30316-2 0  9993,2 52281  53.2176 140.6225 0002264  68.0432 306.1461 15.08814213  1309,6917.959,95.439,541.39,538.258,0.0
52281.0,STARLINK-3779,PAYLOAD,2022-08-27 22:00:00,15.08858655,0.0002387,53.2176,139.1274,66.281,319.4919,-0.0016294,-0.00026141,0.0,0 STARLINK-3779,1 52281U 22041W   22239.91667824 -.00026141  00000-0 -16294-2 0  9998,2 52281  53.2176 139.1274 0002387  66.2810 319.4919 15.08858655 20889,6917.823,95.436,541.34,538.0369999999998,0.0
